MESON-1                 
1 59131U 24043AK  26068.90019075  .00008544  00000+0  29748-3 0  9998
2 59131  97.5469 205.2839 0009545 227.1432 132.9007 15.29893494111890
STARLINK-35069          
1 66268U 25247D   26068.84228169  .00042107  00000+0  14253-2 0  9990
2 66268  53.1572 190.9818 0001163  60.6357 299.4760 15.30209766 21051
